{
    "links": {
        "self": "http://www.neowsapp.com/rest/v1/neo/3289174?api_key=iIulBulltgU6a56xZRHN4H3l9WmuAYTsLGpBGhQ2"
    },
    "id": "3289174",
    "neo_reference_id": "3289174",
    "name": "(2005 QR87)",
    "designation": "2005 QR87",
    "nasa_jpl_url": "http://ssd.jpl.nasa.gov/sbdb.cgi?sstr=3289174",
    "absolute_magnitude_h": 20.4,
    "estimated_diameter": {
        "kilometers": {
            "estimated_diameter_min": 0.2210828104,
            "estimated_diameter_max": 0.4943561926
        },
        "meters": {
            "estimated_diameter_min": 221.0828103591,
            "estimated_diameter_max": 494.3561926196
        },
        "miles": {
            "estimated_diameter_min": 0.137374447,
            "estimated_diameter_max": 0.3071786018
        },
        "feet": {
            "estimated_diameter_min": 725.3373275385,
            "estimated_diameter_max": 1621.9035709942
        }
    },
    "is_potentially_hazardous_asteroid": false,
    "close_approach_data": [
        {
            "close_approach_date": "1980-09-04",
            "close_approach_date_full": "1980-Sep-04 22:22",
            "epoch_date_close_approach": 336954120000,
            "relative_velocity": {
                "kilometers_per_second": "5.21404618",
                "kilometers_per_hour": "18770.5662479717",
                "miles_per_hour": "11663.2999000244"
            },
            "miss_distance": {
                "astronomical": "0.2242930385",
                "lunar": "87.2499919765",
                "kilometers": "33553760.815427995",
                "miles": "20849340.173956531"
            },
            "orbiting_body": "Earth"
        },
        {
            "close_approach_date": "2005-09-08",
            "close_approach_date_full": "2005-Sep-08 17:05",
            "epoch_date_close_approach": 1126199100000,
            "relative_velocity": {
                "kilometers_per_second": "5.3373144253",
                "kilometers_per_hour": "19214.3319311808",
                "miles_per_hour": "11939.0386380162"
            },
            "miss_distance": {
                "astronomical": "0.2686408256",
                "lunar": "104.5012811584",
                "kilometers": "40188095.304801472",
                "miles": "24971724.4681534336"
            },
            "orbiting_body": "Earth"
        }
    ],
    "orbital_data": {
        "orbit_id": "14",
        "orbit_determination_date": "2017-04-06 09:10:36",
        "first_observation_date": "2005-08-31",
        "last_observation_date": "2005-10-23",
        "data_arc_in_days": 53,
        "observations_used": 55,
        "orbit_uncertainty": "6",
        "minimum_orbit_intersection": ".222219",
        "jupiter_tisserand_invariant": "3.582",
        "epoch_osculation": "2459000.5",
        "eccentricity": ".4255682533009057",
        "semi_major_axis": "2.136131970399",
        "inclination": "8.606317005897559",
        "ascending_node_longitude": "354.0596119447064",
        "orbital_period": "1140.356248969276",
        "perihelion_distance": "1.227062018936076",
        "perihelion_argument": "346.1361061488109",
        "aphelion_distance": "3.045201921861925",
        "perihelion_time": "2459309.206087176063",
        "mean_anomaly": "262.5443220188143",
        "mean_motion": ".3156908205882066",
        "equinox": "J2000",
        "orbit_class": {
            "orbit_class_type": "AMO",
            "orbit_class_description": "Near-Earth asteroid orbits similar to that of 1221 Amor",
            "orbit_class_range": "1.017 AU < q (perihelion) < 1.3 AU"
        }
    },
    "is_sentry_object": false
}